METOP-B                 
1 38771U 12049A   23040.13004904  .00000282  00000+0  14892-3 0  9990
2 38771  98.6976 101.5393 0001487  84.2978 329.2831 14.21480878539359
